[Satellite]
VERSION=1.1
NAME=AEROCUBE 7B
NICKNAME=AEROCUBE 7B
TLE1=1 43042U 17071F   20157.51880851  .00003212  00000-0  79577-4 0  9997
TLE2=2 43042  51.6365 125.1204 0004740  10.5069 349.6015 15.43538439140538
STATUS=0
